{"type": "FeatureCollection", "features": [ {"type": "Feature", "properties": {"norad_id": 31674, "name": "FENGYUN 1C DEB", "group": "fengyun-1c-debris", "lat": -50.14313698953131, "lon": 37.979686911109106, "alt_km": 711.8023381183239, "timestamp": "2025-12-16T13:52:37.807331+00:00", "meta": {"OBJECT_NAME": "FENGYUN 1C DEB", "OBJECT_ID": "1999-025CCG", "EPOCH": "2025-12-13T08:22:41.288736", "MEAN_MOTION": 14.51898371, "ECCENTRICITY": 0.00245296, "INCLINATION": 98.9271, "RA_OF_ASC_NODE": 23.6977, "ARG_OF_PERICENTER": 283.0271, "MEAN_ANOMALY": 76.8184, "EPHEMERIS_TYPE": 0, "CLASSIFICATION_TYPE": "U", "NORAD_CAT_ID": 31674, "ELEMENT_SET_NO": 999, "REV_AT_EPOCH": 64623, "BSTAR": 0.0046279629, "MEAN_MOTION_DOT": 0.00018727, "MEAN_MOTION_DDOT": 0}, "tle": {"line1": "1 31674U 99025CCG 25347.34908899  .00018727  00000+0  46280-2 0  9993", "line2": "2 31674  98.9271  23.6977 0024529 283.0271  76.8184 14.51898371646230"}}, "geometry": {"type": "Point", "coordinates": [37.979686911109106, -50.14313698953131]}}, {"type": "Feature", "properties": {"norad_id": 31678, "name": "FENGYUN 1C DEB", "group": "fengyun-1c-debris", "lat": -75.16721515187353, "lon": 135.74869594885567, "alt_km": 731.181174245391, "timestamp": "2025-12-16T13:52:37.807341+00:00", "meta": {"OBJECT_NAME": "FENGYUN 1C DEB", "OBJECT_ID": "1999-025CCL", "EPOCH": "2025-12-15T13:26:22.402464", "MEAN_MOTION": 14.5321738, "ECCENTRICITY": 0.02588634, "INCLINATION": 98.7994, "RA_OF_ASC_NODE": 98.882, "ARG_OF_PERICENTER": 19.3116, "MEAN_ANOMALY": 341.7672, "EPHEMERIS_TYPE": 0, "CLASSIFICATION_TYPE": "U", "NORAD_CAT_ID": 31678, "ELEMENT_SET_NO": 999, "REV_AT_EPOCH": 96880, "BSTAR": 0.00049314294, "MEAN_MOTION_DOT": 3.125e-05, "MEAN_MOTION_DDOT": 0}, "tle": {"line1": "1 31678U 99025CCL 25349.55998151  .00003125  00000+0  49314-3 0  9990", "line2": "2 31678  98.7994  98.8820 0258863  19.3116 341.7672 14.53217380968806"}}, "geometry": {"type": "Point", "coordinates": [135.74869594885567, -75.16721515187353]}}, {"type": "Feature", "properties": {"norad_id": 31680, "name": "FENGYUN 1C DEB", "group": "fengyun-1c-debris", "lat": 51.334302086496685, "lon": -68.19024107083571, "alt_km": 532.7050066642641, "timestamp": "2025-12-16T13:52:37.807351+00:00", "meta": {"OBJECT_NAME": "FENGYUN 1C DEB", "OBJECT_ID": "1999-025CCN", "EPOCH": "2025-12-15T02:39:16.157952", "MEAN_MOTION": 15.24266058, "ECCENTRICITY": 0.00751382, "INCLINATION": 99.8366, "RA_OF_ASC_NODE": 97.3639, "ARG_OF_PERICENTER": 282.5193, "MEAN_ANOMALY": 76.7638, "EPHEMERIS_TYPE": 0, "CLASSIFICATION_TYPE": "U", "NORAD_CAT_ID": 31680, "ELEMENT_SET_NO": 999, "REV_AT_EPOCH": 208, "BSTAR": 0.00079471196, "MEAN_MOTION_DOT": 0.00020946, "MEAN_MOTION_DDOT": 0}, "tle": {"line1": "1 31680U 99025CCN 25349.11060368  .00020946  00000+0  79471-3 0  9992", "line2": "2 31680  99.8366  97.3639 0075138 282.5193  76.7638 15.24266058  2088"}}, "geometry": {"type": "Point", "coordinates": [-68.19024107083571, 51.334302086496685]}}, {"type": "Feature", "properties": {"norad_id": 31685, "name": "FENGYUN 1C DEB", "group": "fengyun-1c-debris", "lat": 22.34534345094177, "lon": -161.69535465475033, "alt_km": 853.8639883726055, "timestamp": "2025-12-16T13:52:37.807361+00:00", "meta": {"OBJECT_NAME": "FENGYUN 1C DEB", "OBJECT_ID": "1999-025CCT", "EPOCH": "2025-12-15T08:10:22.598976", "MEAN_MOTION": 14.09659359, "ECCENTRICITY": 0.0016018, "INCLINATION": 98.7309, "RA_OF_ASC_NODE": 13.4828, "ARG_OF_PERICENTER": 218.0152, "MEAN_ANOMALY": 141.9889, "EPHEMERIS_TYPE": 0, "CLASSIFICATION_TYPE": "U", "NORAD_CAT_ID": 31685, "ELEMENT_SET_NO": 999, "REV_AT_EPOCH": 95126, "BSTAR": 0.00010958663, "MEAN_MOTION_DOT": 1.5e-06, "MEAN_MOTION_DDOT": 0}, "tle": {"line1": "1 31685U 99025CCT 25349.34053934  .00000150  00000+0  10959-3 0  9994", "line2": "2 31685  98.7309  13.4828 0016018 218.0152 141.9889 14.09659359951266"}}, "geometry": {"type": "Point", "coordinates": [-161.69535465475033, 22.34534345094177]}}, {"type": "Feature", "properties": {"norad_id": 31686, "name": "FENGYUN 1C DEB", "group": "fengyun-1c-debris", "lat": 65.21140700829169, "lon": 44.097639141579585, "alt_km": 451.7567193140085, "timestamp": "2025-12-16T13:52:37.807371+00:00", "meta": {"OBJECT_NAME": "FENGYUN 1C DEB", "OBJECT_ID": "1999-025CCU", "EPOCH": "2025-12-15T11:29:17.235744", "MEAN_MOTION": 14.72154688, "ECCENTRICITY": 0.02834015, "INCLINATION": 98.1523, "RA_OF_ASC_NODE": 61.0769, "ARG_OF_PERICENTER": 80.7699, "MEAN_ANOMALY": 282.5442, "EPHEMERIS_TYPE": 0, "CLASSIFICATION_TYPE": "U", "NORAD_CAT_ID": 31686, "ELEMENT_SET_NO": 999, "REV_AT_EPOCH": 97859, "BSTAR": 0.00047059205, "MEAN_MOTION_DOT": 5.561e-05, "MEAN_MOTION_DDOT": 0}, "tle": {"line1": "1 31686U 99025CCU 25349.47867171  .00005561  00000+0  47059-3 0  9997", "line2": "2 31686  98.1523  61.0769 0283401  80.7699 282.5442 14.72154688978591"}}, "geometry": {"type": "Point", "coordinates": [44.097639141579585, 65.21140700829169]}}, {"type": "Feature", "properties": {"norad_id": 31688, "name": "FENGYUN 1C DEB", "group": "fengyun-1c-debris", "lat": -2.66743976495329, "lon": -135.83071842545218, "alt_km": 854.9295869405641, "timestamp": "2025-12-16T13:52:37.807381+00:00", "meta": {"OBJECT_NAME": "FENGYUN 1C DEB", "OBJECT_ID": "1999-025CCW", "EPOCH": "2025-12-15T02:46:02.938656", "MEAN_MOTION": 14.02315664, "ECCENTRICITY": 0.00755867, "INCLINATION": 98.9645, "RA_OF_ASC_NODE": 43.1518, "ARG_OF_PERICENTER": 134.664, "MEAN_ANOMALY": 226.072, "EPHEMERIS_TYPE": 0, "CLASSIFICATION_TYPE": "U", "NORAD_CAT_ID": 31688, "ELEMENT_SET_NO": 999, "REV_AT_EPOCH": 95311, "BSTAR": -3.3770767e-05, "MEAN_MOTION_DOT": -9.6e-07, "MEAN_MOTION_DDOT": 0}, "tle": {"line1": "1 31688U 99025CCW 25349.11531179 -.00000096  00000+0 -33771-4 0  9993", "line2": "2 31688  98.9645  43.1518 0075586 134.6640 226.0720 14.02315664953116"}}, "geometry": {"type": "Point", "coordinates": [-135.83071842545218, -2.66743976495329]}}, {"type": "Feature", "properties": {"norad_id": 31691, "name": "FENGYUN 1C DEB", "group": "fengyun-1c-debris", "lat": -21.440976738061252, "lon": 80.58162565757355, "alt_km": 824.72791382776, "timestamp": "2025-12-16T13:52:37.807391+00:00", "meta": {"OBJECT_NAME": "FENGYUN 1C DEB", "OBJECT_ID": "1999-025CCZ", "EPOCH": "2025-12-12T12:19:12.535392", "MEAN_MOTION": 14.26139263, "ECCENTRICITY": 0.00611137, "INCLINATION": 98.881, "RA_OF_ASC_NODE": 72.9414, "ARG_OF_PERICENTER": 239.7634, "MEAN_ANOMALY": 119.7486, "EPHEMERIS_TYPE": 0, "CLASSIFICATION_TYPE": "U", "NORAD_CAT_ID": 31691, "ELEMENT_SET_NO": 999, "REV_AT_EPOCH": 64108, "BSTAR": 0.0035356607, "MEAN_MOTION_DOT": 8.591e-05, "MEAN_MOTION_DDOT": 0}, "tle": {"line1": "1 31691U 99025CCZ 25346.51333953  .00008591  00000+0  35357-2 0  9994", "line2": "2 31691  98.8810  72.9414 0061113 239.7634 119.7486 14.26139263641081"}}, "geometry": {"type": "Point", "coordinates": [80.58162565757355, -21.440976738061252]}}, {"type": "Feature", "properties": {"norad_id": 31692, "name": "FENGYUN 1C DEB", "group": "fengyun-1c-debris", "lat": 24.34534924607908, "lon": 171.3873942194119, "alt_km": 823.2435637444369, "timestamp": "2025-12-16T13:52:37.807401+00:00", "meta": {"OBJECT_NAME": "FENGYUN 1C DEB", "OBJECT_ID": "1999-025CDA", "EPOCH": "2025-12-13T19:07:47.653248", "MEAN_MOTION": 14.1836456, "ECCENTRICITY": 0.00879373, "INCLINATION": 99.1765, "RA_OF_ASC_NODE": 344.318, "ARG_OF_PERICENTER": 78.7556, "MEAN_ANOMALY": 282.3486, "EPHEMERIS_TYPE": 0, "CLASSIFICATION_TYPE": "U", "NORAD_CAT_ID": 31692, "ELEMENT_SET_NO": 999, "REV_AT_EPOCH": 58224, "BSTAR": 0.0032581742, "MEAN_MOTION_DOT": 6.94e-05, "MEAN_MOTION_DDOT": 0}, "tle": {"line1": "1 31692U 99025CDA 25347.79707932  .00006940  00000+0  32582-2 0  9991", "line2": "2 31692  99.1765 344.3180 0087937  78.7556 282.3486 14.18364560582247"}}, "geometry": {"type": "Point", "coordinates": [171.3873942194119, 24.34534924607908]}}, {"type": "Feature", "properties": {"norad_id": 31695, "name": "FENGYUN 1C DEB", "group": "fengyun-1c-debris", "lat": -28.743425403060677, "lon": 79.53987152483923, "alt_km": 704.6161739810941, "timestamp": "2025-12-16T13:52:37.807411+00:00", "meta": {"OBJECT_NAME": "FENGYUN 1C DEB", "OBJECT_ID": "1999-025CDD", "EPOCH": "2025-12-14T22:54:11.805120", "MEAN_MOTION": 14.73724292, "ECCENTRICITY": 0.0174905, "INCLINATION": 98.2647, "RA_OF_ASC_NODE": 73.3122, "ARG_OF_PERICENTER": 221.4768, "MEAN_ANOMALY": 137.3057, "EPHEMERIS_TYPE": 0, "CLASSIFICATION_TYPE": "U", "NORAD_CAT_ID": 31695, "ELEMENT_SET_NO": 999, "REV_AT_EPOCH": 66004, "BSTAR": 0.00098127556, "MEAN_MOTION_DOT": 8.134e-05, "MEAN_MOTION_DDOT": 0}, "tle": {"line1": "1 31695U 99025CDD 25348.95430330  .00008134  00000+0  98128-3 0  9994", "line2": "2 31695  98.2647  73.3122 0174905 221.4768 137.3057 14.73724292660049"}}, "geometry": {"type": "Point", "coordinates": [79.53987152483923, -28.743425403060677]}}, {"type": "Feature", "properties": {"norad_id": 31714, "name": "FENGYUN 1C DEB", "group": "fengyun-1c-debris", "lat": -74.70081580624966, "lon": 35.74021250449559, "alt_km": 599.8530750707196, "timestamp": "2025-12-16T13:52:37.807421+00:00", "meta": {"OBJECT_NAME": "FENGYUN 1C DEB", "OBJECT_ID": "1999-025CDM", "EPOCH": "2025-12-15T05:07:59.174112", "MEAN_MOTION": 14.88326226, "ECCENTRICITY": 0.00178155, "INCLINATION": 99.0311, "RA_OF_ASC_NODE": 249.7375, "ARG_OF_PERICENTER": 295.9558, "MEAN_ANOMALY": 215.7728, "EPHEMERIS_TYPE": 0, "CLASSIFICATION_TYPE": "U", "NORAD_CAT_ID": 31714, "ELEMENT_SET_NO": 999, "REV_AT_EPOCH": 96086, "BSTAR": 0.003630144, "MEAN_MOTION_DOT": 0.00033769, "MEAN_MOTION_DDOT": 0}, "tle": {"line1": "1 31714U 99025CDM 25349.21387933  .00033769  00000+0  36301-2 0  9992", "line2": "2 31714  99.0311 249.7375 0017815 295.9558 215.7728 14.88326226960866"}}, "geometry": {"type": "Point", "coordinates": [35.74021250449559, -74.70081580624966]}}]}